CCSDS_OMM_VERS = 2.0
CREATION_DATE  = 
ORIGINATOR     = 

OBJECT_NAME    = STARLINK-36973
OBJECT_ID      = 2026-042K
CENTER_NAME    = EARTH
REF_FRAME      = TEME
TIME_SYSTEM    = UTC
MEAN_ELEMENT_THEORY = SGP/SGP4

EPOCH          = 2026-03-18T20:00:01.999872
MEAN_MOTION    = 15.80909268
ECCENTRICITY   = .00011295
INCLINATION    = 53.1590
RA_OF_ASC_NODE = 148.8668
ARG_OF_PERICENTER = 90.6273
MEAN_ANOMALY   = 143.1004

EPHEMERIS_TYPE = 0
CLASSIFICATION_TYPE = U
NORAD_CAT_ID   = 68078
ELEMENT_SET_NO = 999
REV_AT_EPOCH   = 352
BSTAR          = -.33049626E-3
MEAN_MOTION_DOT = -.65544E-3
MEAN_MOTION_DDOT = 0

CCSDS_OMM_VERS = 2.0
CREATION_DATE  = 
ORIGINATOR     = 

OBJECT_NAME    = STARLINK-37063
OBJECT_ID      = 2026-042L
CENTER_NAME    = EARTH
REF_FRAME      = TEME
TIME_SYSTEM    = UTC
MEAN_ELEMENT_THEORY = SGP/SGP4

EPOCH          = 2026-03-18T20:00:01.999872
MEAN_MOTION    = 15.80906499
ECCENTRICITY   = .00011422
INCLINATION    = 53.1588
RA_OF_ASC_NODE = 148.8756
ARG_OF_PERICENTER = 94.3152
MEAN_ANOMALY   = 135.1432

EPHEMERIS_TYPE = 0
CLASSIFICATION_TYPE = U
NORAD_CAT_ID   = 68079
ELEMENT_SET_NO = 999
REV_AT_EPOCH   = 352
BSTAR          = -.30132706E-3
MEAN_MOTION_DOT = -.59853E-3
MEAN_MOTION_DDOT = 0

CCSDS_OMM_VERS = 2.0
CREATION_DATE  = 
ORIGINATOR     = 

OBJECT_NAME    = STARLINK-37051
OBJECT_ID      = 2026-042M
CENTER_NAME    = EARTH
REF_FRAME      = TEME
TIME_SYSTEM    = UTC
MEAN_ELEMENT_THEORY = SGP/SGP4

EPOCH          = 2026-03-18T20:00:01.999872
MEAN_MOTION    = 15.80910439
ECCENTRICITY   = .00014019
INCLINATION    = 53.1586
RA_OF_ASC_NODE = 148.8488
ARG_OF_PERICENTER = 121.3486
MEAN_ANOMALY   = 120.9257

EPHEMERIS_TYPE = 0
CLASSIFICATION_TYPE = U
NORAD_CAT_ID   = 68080
ELEMENT_SET_NO = 999
REV_AT_EPOCH   = 352
BSTAR          = -.44070556E-3
MEAN_MOTION_DOT = -.86963E-3
MEAN_MOTION_DDOT = 0

CCSDS_OMM_VERS = 2.0
CREATION_DATE  = 
ORIGINATOR     = 

OBJECT_NAME    = STARLINK-37066
OBJECT_ID      = 2026-042N
CENTER_NAME    = EARTH
REF_FRAME      = TEME
TIME_SYSTEM    = UTC
MEAN_ELEMENT_THEORY = SGP/SGP4

EPOCH          = 2026-03-18T20:00:01.999872
MEAN_MOTION    = 15.80905920
ECCENTRICITY   = .0001358
INCLINATION    = 53.1593
RA_OF_ASC_NODE = 148.8583
ARG_OF_PERICENTER = 63.4676
MEAN_ANOMALY   = 174.5343

EPHEMERIS_TYPE = 0
CLASSIFICATION_TYPE = U
NORAD_CAT_ID   = 68081
ELEMENT_SET_NO = 999
REV_AT_EPOCH   = 352
BSTAR          = -.32380655E-3
MEAN_MOTION_DOT = -.64234E-3
MEAN_MOTION_DDOT = 0

CCSDS_OMM_VERS = 2.0
CREATION_DATE  = 
ORIGINATOR     = 

OBJECT_NAME    = STARLINK-37054
OBJECT_ID      = 2026-042P
CENTER_NAME    = EARTH
REF_FRAME      = TEME
TIME_SYSTEM    = UTC
MEAN_ELEMENT_THEORY = SGP/SGP4

EPOCH          = 2026-03-18T20:00:01.999872
MEAN_MOTION    = 15.80879874
ECCENTRICITY   = .00013117
INCLINATION    = 53.1587
RA_OF_ASC_NODE = 148.8403
ARG_OF_PERICENTER = 74.4400
MEAN_ANOMALY   = 172.1141

EPHEMERIS_TYPE = 0
CLASSIFICATION_TYPE = U
NORAD_CAT_ID   = 68082
ELEMENT_SET_NO = 999
REV_AT_EPOCH   = 352
BSTAR          = -.78024704E-4
MEAN_MOTION_DOT = -.16075E-3
MEAN_MOTION_DDOT = 0

CCSDS_OMM_VERS = 2.0
CREATION_DATE  = 
ORIGINATOR     = 

OBJECT_NAME    = STARLINK-37065
OBJECT_ID      = 2026-042Q
CENTER_NAME    = EARTH
REF_FRAME      = TEME
TIME_SYSTEM    = UTC
MEAN_ELEMENT_THEORY = SGP/SGP4

EPOCH          = 2026-03-18T20:00:01.999872
MEAN_MOTION    = 15.79386154
ECCENTRICITY   = .00010846
INCLINATION    = 53.1590
RA_OF_ASC_NODE = 148.8329
ARG_OF_PERICENTER = 90.5504
MEAN_ANOMALY   = 159.2848

EPHEMERIS_TYPE = 0
CLASSIFICATION_TYPE = U
NORAD_CAT_ID   = 68083
ELEMENT_SET_NO = 999
REV_AT_EPOCH   = 352
BSTAR          = -.12223661E-1
MEAN_MOTION_DOT = -.1956965E-1
MEAN_MOTION_DDOT = 0

CCSDS_OMM_VERS = 2.0
CREATION_DATE  = 
ORIGINATOR     = 

OBJECT_NAME    = STARLINK-37037
OBJECT_ID      = 2026-042R
CENTER_NAME    = EARTH
REF_FRAME      = TEME
TIME_SYSTEM    = UTC
MEAN_ELEMENT_THEORY = SGP/SGP4

EPOCH          = 2026-03-18T20:00:01.999872
MEAN_MOTION    = 15.80886958
ECCENTRICITY   = .00010273
INCLINATION    = 53.1585
RA_OF_ASC_NODE = 148.8223
ARG_OF_PERICENTER = 87.5446
MEAN_ANOMALY   = 167.5498

EPHEMERIS_TYPE = 0
CLASSIFICATION_TYPE = U
NORAD_CAT_ID   = 68084
ELEMENT_SET_NO = 999
REV_AT_EPOCH   = 352
BSTAR          = -.13737675E-3
MEAN_MOTION_DOT = -.27743E-3
MEAN_MOTION_DDOT = 0

CCSDS_OMM_VERS = 2.0
CREATION_DATE  = 
ORIGINATOR     = 

OBJECT_NAME    = STARLINK-37068
OBJECT_ID      = 2026-042S
CENTER_NAME    = EARTH
REF_FRAME      = TEME
TIME_SYSTEM    = UTC
MEAN_ELEMENT_THEORY = SGP/SGP4

EPOCH          = 2026-03-18T20:00:01.999872
MEAN_MOTION    = 15.80893197
ECCENTRICITY   = .00012093
INCLINATION    = 53.1586
RA_OF_ASC_NODE = 148.8135
ARG_OF_PERICENTER = 114.3337
MEAN_ANOMALY   = 145.0242

EPHEMERIS_TYPE = 0
CLASSIFICATION_TYPE = U
NORAD_CAT_ID   = 68085
ELEMENT_SET_NO = 999
REV_AT_EPOCH   = 352
BSTAR          = -.13049908E-3
MEAN_MOTION_DOT = -.26401E-3
MEAN_MOTION_DDOT = 0

CCSDS_OMM_VERS = 2.0
CREATION_DATE  = 
ORIGINATOR     = 

OBJECT_NAME    = STARLINK-37067
OBJECT_ID      = 2026-042T
CENTER_NAME    = EARTH
REF_FRAME      = TEME
TIME_SYSTEM    = UTC
MEAN_ELEMENT_THEORY = SGP/SGP4

EPOCH          = 2026-03-18T20:00:01.999872
MEAN_MOTION    = 15.80905589
ECCENTRICITY   = .00011142
INCLINATION    = 53.1585
RA_OF_ASC_NODE = 148.8045
ARG_OF_PERICENTER = 40.1881
MEAN_ANOMALY   = 223.4510

EPHEMERIS_TYPE = 0
CLASSIFICATION_TYPE = U
NORAD_CAT_ID   = 68086
ELEMENT_SET_NO = 999
REV_AT_EPOCH   = 352
BSTAR          = -.38658638E-3
MEAN_MOTION_DOT = -.76441E-3
MEAN_MOTION_DDOT = 0

CCSDS_OMM_VERS = 2.0
CREATION_DATE  = 
ORIGINATOR     = 

OBJECT_NAME    = STARLINK-37062
OBJECT_ID      = 2026-042U
CENTER_NAME    = EARTH
REF_FRAME      = TEME
TIME_SYSTEM    = UTC
MEAN_ELEMENT_THEORY = SGP/SGP4

EPOCH          = 2026-03-18T20:00:01.999872
MEAN_MOTION    = 15.80834894
ECCENTRICITY   = .00014211
INCLINATION    = 53.1588
RA_OF_ASC_NODE = 148.7953
ARG_OF_PERICENTER = 71.1242
MEAN_ANOMALY   = 196.8052

EPHEMERIS_TYPE = 0
CLASSIFICATION_TYPE = U
NORAD_CAT_ID   = 68087
ELEMENT_SET_NO = 999
REV_AT_EPOCH   = 352
BSTAR          = -.11897851E-4
MEAN_MOTION_DOT = -.3042E-4
MEAN_MOTION_DDOT = 0

CCSDS_OMM_VERS = 2.0
CREATION_DATE  = 
ORIGINATOR     = 

OBJECT_NAME    = STARLINK-37059
OBJECT_ID      = 2026-042V
CENTER_NAME    = EARTH
REF_FRAME      = TEME
TIME_SYSTEM    = UTC
MEAN_ELEMENT_THEORY = SGP/SGP4

EPOCH          = 2026-03-18T20:00:01.999872
MEAN_MOTION    = 15.80881868
ECCENTRICITY   = .00010354
INCLINATION    = 53.1586
RA_OF_ASC_NODE = 148.7872
ARG_OF_PERICENTER = 70.2302
MEAN_ANOMALY   = 201.9539

EPHEMERIS_TYPE = 0
CLASSIFICATION_TYPE = U
NORAD_CAT_ID   = 68088
ELEMENT_SET_NO = 999
REV_AT_EPOCH   = 352
BSTAR          = -.15519106E-3
MEAN_MOTION_DOT = -.3123E-3
MEAN_MOTION_DDOT = 0

CCSDS_OMM_VERS = 2.0
CREATION_DATE  = 
ORIGINATOR     = 

OBJECT_NAME    = STARLINK-37004
OBJECT_ID      = 2026-042W
CENTER_NAME    = EARTH
REF_FRAME      = TEME
TIME_SYSTEM    = UTC
MEAN_ELEMENT_THEORY = SGP/SGP4

EPOCH          = 2026-03-18T20:00:01.999872
MEAN_MOTION    = 15.80890640
ECCENTRICITY   = .00011036
INCLINATION    = 53.1587
RA_OF_ASC_NODE = 148.7784
ARG_OF_PERICENTER = 95.0250
MEAN_ANOMALY   = 181.4272

EPHEMERIS_TYPE = 0
CLASSIFICATION_TYPE = U
NORAD_CAT_ID   = 68089
ELEMENT_SET_NO = 999
REV_AT_EPOCH   = 352
BSTAR          = -.15512633E-3
MEAN_MOTION_DOT = -.3123E-3
MEAN_MOTION_DDOT = 0

