STARLINK-36973          
1 68078U 26042K   26077.83335648 -.00065544  00000+0 -33050-3 0  9994
2 68078  53.1590 148.8668 0001129  90.6273 143.1004 15.80909268  3526
STARLINK-37063          
1 68079U 26042L   26077.83335648 -.00059853  00000+0 -30133-3 0  9990
2 68079  53.1588 148.8756 0001142  94.3152 135.1432 15.80906499  3523
STARLINK-37051          
1 68080U 26042M   26077.83335648 -.00086963  00000+0 -44071-3 0  9990
2 68080  53.1586 148.8488 0001401 121.3486 120.9257 15.80910439  3520
STARLINK-37066          
1 68081U 26042N   26077.83335648 -.00064234  00000+0 -32381-3 0  9999
2 68081  53.1593 148.8583 0001358  63.4676 174.5343 15.80905920  3523
STARLINK-37054          
1 68082U 26042P   26077.83335648 -.00016075  00000+0 -78025-4 0  9996
2 68082  53.1587 148.8403 0001311  74.4400 172.1141 15.80879874  3522
STARLINK-37065          
1 68083U 26042Q   26077.83335648 -.01956965  00000+0 -12224-1 0  9995
2 68083  53.1590 148.8329 0001084  90.5504 159.2848 15.79386154  3527
STARLINK-37037          
1 68084U 26042R   26077.83335648 -.00027743  00000+0 -13738-3 0  9991
2 68084  53.1585 148.8223 0001027  87.5446 167.5498 15.80886958  3525
STARLINK-37068          
1 68085U 26042S   26077.83335648 -.00026401  00000+0 -13050-3 0  9999
2 68085  53.1586 148.8135 0001209 114.3337 145.0242 15.80893197  3520
STARLINK-37067          
1 68086U 26042T   26077.83335648 -.00076441  00000+0 -38659-3 0  9991
2 68086  53.1585 148.8045 0001114  40.1881 223.4510 15.80905589  3523
STARLINK-37062          
1 68087U 26042U   26077.83335648 -.00003042  00000+0 -11898-4 0  9996
2 68087  53.1588 148.7953 0001421  71.1242 196.8052 15.80834894  3524
STARLINK-37059          
1 68088U 26042V   26077.83335648 -.00031230  00000+0 -15519-3 0  9990
2 68088  53.1586 148.7872 0001035  70.2302 201.9539 15.80881868  3522
STARLINK-37004          
1 68089U 26042W   26077.83335648 -.00031230  00000+0 -15513-3 0  9995
2 68089  53.1587 148.7784 0001103  95.0250 181.4272 15.80890640  3523
